{"type":"FeatureCollection","features":[{"type":"Feature","properties":{"name":"Thames"},"geometry":{"type":"LineString","coordinates":[[-0.53156,51.4337],[-0.4698,51.38959],[-0.42488,51.39106],[-0.41796,51.39435],[-0.41137,51.39838],[-0.40307,51.40221],[-0.3907,51.40473],[-0.385,51.40717],[-0.37971,51.41116],[-0.37385,51.41279],[-0.34956,51.39977],[-0.34919,51.39851],[-0.33438,51.39838],[-0.32372,51.40091],[-0.3155,51.40729],[-0.30818,51.41901],[-0.3188,51.42805],[-0.32038,51.4361],[-0.30818,51.44566],[-0.32315,51.46471],[-0.31013,51.47268],[-0.27098,51.47366],[-0.25959,51.47577],[-0.24706,51.48517],[-0.23648,51.48733],[-0.22606,51.4842],[-0.20995,51.47065],[-0.19831,51.46739],[-0.17927,51.47008],[-0.15673,51.47736],[-0.13549,51.48717],[-0.1022,51.50906],[-0.08479,51.51166],[-0.06721,51.50808],[-0.04878,51.50092],[-0.03767,51.4975],[-0.00658,51.49409],[0.00994,51.5006],[0.02068,51.50239],[0.04827,51.49116],[0.07195,51.4925],[0.12867,51.50458],[0.14845,51.50519],[0.16847,51.49946],[0.18841,51.48383],[0.20338,51.47651],[0.27467,51.45999],[0.30633,51.4669],[0.32228,51.46699],[0.32927,51.45657],[0.33758,51.44876],[0.35637,51.4464],[0.36817,51.4488],[0.38453,51.45315]]}}]}